#*SOLUTION
# obs. used (total)   	  86
   data-arc span   	  15 days
   first obs. used   	  2017-10-14
   last obs. used   	  2017-10-29
   planetary ephem.   	  DE431
   SB-pert. ephem.   	  SB431-N16
   fit RMS   	  .35829
   data source   	  ORB
   producer   	  Davide Farnocchia
   solution date   	  2017-Oct-29 10:45:18

#*ELEMENTS
Orbital Elements at Epoch 2458052.5 (2017-Oct-26.0) TDB
e	1.197188708990351	0.0016908
a	-1.290422401198905	0.0077688	au
q	.2544567273446408	0.0006499	au
i	122.604016492383	0.060915	deg
node	24.60295925659798	0.0027382	deg
peri	241.5429238264925	0.11715	deg
M	31.28328035977056	0.27399	deg
tp	2458005.972892582579
(2017-Sep-09.47289258)	0.012662	JED
period	n/a
n/a	n/a
n/a	d
yr
n	.6723667577077285	0.0060718	deg/d
Q	n/a	n/a	au

#*COVARIANCE MATRIX
e	q	tp	node	peri	i
e	2.858709169167452E-6	1.098820139532213E-6	2.140740994127999E-5	-4.629574614074441E-6	.0001980724106465366	.0001029927307342494
q	1.098820139532213E-6	4.223650568138116E-7	8.228257068002674E-6	-1.779505280075431E-6	7.613474148207401E-5	3.958804146112113E-5
tp	2.140740994127999E-5	8.228257068002674E-6	.0001603227078400257	-3.466805081263181E-5	.001483242149313819	.0007712542878842905
node	-4.629574614074441E-6	-1.779505280075431E-6	-3.466805081263181E-5	7.497524956627533E-6	-.0003207714690047103	-.000166792920108298
peri	.0001980724106465366	7.613474148207401E-5	.001483242149313819	-.0003207714690047103	.01372394843890766	.007136100317461406
i	.0001029927307342494	3.958804146112113E-5	.0007712542878842905	-.000166792920108298	.007136100317461406	.003710639376110803
